STARLINK-37938          
1 69568U 26135Y   26194.50001156  .00094295  00000+0  17170-2 0  9997
2 69568  97.2836 222.8944 0001426  98.2576  47.5512 15.49152091  5536
STARLINK-37924          
1 69569U 26135Z   26194.50001156 -.02930147  00000+0 -54199-1 0  9998
2 69569  97.2843 222.9925 0001525  73.0229 291.0849 15.52981160  5542
SHIJIAN-31 (SJ-31)      
1 69570U 26136A   26194.50582464 -.00000478  00000+0  00000+0 0  9999
2 69570  63.4867 353.3689 6940088 171.8375 212.2965  1.92227787   593
GUOWANG OBJECT A        
1 69572U 26137A   26193.89246529 -.00000143  00000+0  24502-5 0  9990
2 69572  49.9997 153.0717 0012495 311.3863  48.5960 13.89812741  3591
GUOWANG OBJECT B        
1 69573U 26137B   26190.65385973 -.00000214  00000+0 -55136-4 0  9995
2 69573  50.0016 165.9303 0011859 298.8434  61.1273 13.89803849  3155
GUOWANG OBJECT C        
1 69574U 26137C   26193.88847439 -.00000180  00000+0 -27480-4 0  9997
2 69574  49.9967 153.0345 0011896 311.4365  48.5511 13.89814739  3602
GUOWANG OBJECT D        
1 69575U 26137D   26190.65162700 -.00000168  00000+0 -17667-4 0  9993
2 69575  49.9953 165.9027 0011086 299.2996  60.6794 13.89827781  3150
GUOWANG OBJECT E        
1 69576U 26137E   26193.02348711 -.00000204  00000+0 -46563-4 0  9994
2 69576  50.0038 156.4799 0011224 310.0552  49.9361 13.89824941  3484
GUOWANG OBJECT F        
1 69577U 26137F   26192.30363530 -.00000204  00000+0 -46815-4 0  9991
2 69577  50.0028 159.3340 0010834 307.7048  52.2867 13.89809360  3382
GUOWANG OBJECT G        
1 69578U 26137G   26192.30278168 -.00000142  00000+0  35461-5 0  9990
2 69578  49.9952 159.3085 0010806 307.5258  52.4657 13.89795025  3383
GUOWANG OBJECT H        
1 69579U 26137H   26191.00768142 -.00000175  00000+0 -23862-4 0  9991
2 69579  50.0012 164.4679 0010249 306.3680  53.6272 13.89776278  3203
GUOWANG OBJECT J        
1 69580U 26137J   26178.27848690  .00000022  00000+0  13174-3 0  9997
2 69580  49.9961 215.0979 0011832 257.3150 102.6427 13.91997107  1436
CENTISPACE-1 GROUP 05 O*
1 69582U 26138A   26194.34106728 -.00000052  00000+0  51929-4 0  9990
2 69582  55.1388 184.5993 0011308 340.3719  19.6818 14.15470945  3726
CENTISPACE-1 GROUP 05 O*
1 69583U 26138B   26194.47892910 -.00000145  00000+0  42988-5 0  9999
2 69583  55.1382 184.0587 0010296 341.1535  18.9057 14.15650578  3746
CENTISPACE-1 GROUP 05 O*
1 69584U 26138C   26194.47735153 -.00000196  00000+0 -21642-4 0  9995
2 69584  55.1387 184.0591 0010228 342.7982  17.2644 14.15734094  3745
CENTISPACE-1 GROUP 05 O*
1 69585U 26138D   26194.47408623 -.00000301  00000+0 -74602-4 0  9997
2 69585  55.1385 184.0335 0009819 342.0163  18.0463 14.15919525  3740
CENTISPACE-1 GROUP 05 O*
1 69586U 26138E   26193.97869604 -.00000314  00000+0 -81159-4 0  9991
2 69586  55.1377 185.8600 0009500 341.3569  18.7056 14.15986721  3674
CENTISPACE-1 GROUP 05 O*
1 69587U 26138F   26193.97992150 -.00000292  00000+0 -69905-4 0  9995
2 69587  55.1382 185.8680 0009436 345.5018  14.5684 14.15909909  3676
CENTISPACE-1 GROUP 05 O*
1 69588U 26138G   26193.41218649 -.00000375  00000+0 -11167-3 0  9997
2 69588  55.1383 187.9363 0008629 344.0005  16.0696 14.16073930  3590
SPACEMOBILE-008         
1 69589U 26139A   26194.23693319 -.00000117  00000+0  10367-4 0  9996
2 69589  52.9945 144.2981 0004990  51.8250 308.3190 15.12800584  3927
SPACEMOBILE-009         
1 69590U 26139B   26194.50303824 -.00000114  00000+0  10568-4 0  9997
2 69590  52.9937 143.1044 0005247  48.2682 311.8756 15.12694011  3960
SPACEMOBILE-010         
1 69591U 26139C   26194.24165291 -.00000028  00000+0  15486-4 0  9991
2 69591  52.9943 144.3248 0005157  39.4417 320.6949 15.12525408  3937
KUIPER-00423            
1 69592U 26140A   26194.42880299  .00015983  00000+0  42114-3 0  9998
2 69592  51.8805 271.6051 0013595 261.6065  98.3381 15.38591813  5271
KUIPER-00428            
1 69593U 26140B   26194.46551811  .00007411  00000+0  21240-3 0  9992
2 69593  51.8806 271.8447 0008025  25.0788 335.0587 15.36925172  5276
KUIPER-00481            
1 69594U 26140C   26194.43934579  .00018030  00000+0  48337-3 0  9991
2 69594  51.8770 271.6726 0010336 265.7594  94.2212 15.37999156  5274
KUIPER-00490            
1 69595U 26140D   26194.44904782  .00007634  00000+0  21161-3 0  9990
2 69595  51.8780 271.7297 0006787 334.9019  25.1638 15.37930192  5276
KUIPER-00493            
1 69596U 26140E   26194.47049566  .00013724  00000+0  38735-3 0  9996
2 69596  51.8817 271.8746 0007425  33.8337 326.3121 15.36649783  5271
KUIPER-00496            
1 69597U 26140F   26194.49203619  .00016602  00000+0  50222-3 0  9993
2 69597  51.8780 272.0056 0010117  44.5528 315.6269 15.34282725  5272
